ONEWEB-0647             
1 56079U 23043AK  23341.32154916 -.00000343  00000+0 -94458-3 0  9997
2 56079  87.9020  82.9521 0001476 103.4240 256.7055 13.15547341 35084
ONEWEB-0651             
1 56080U 23043AL  23341.31681560 -.00000090  00000+0 -27293-3 0  9990
2 56080  87.9010  82.9235 0001477  88.6154 271.5146 13.15548843 36283
ONEWEB-0718             
1 56081U 23043AM  23341.31204859 -.00000029  00000+0 -11111-3 0  9997
2 56081  87.8980  82.9126 0003575 120.6601 239.4882 13.15548617 35090
GSLV R/B                
1 56082U 23043AN  23341.55048884  .00035179  00000+0  54704-3 0  9995
2 56082  87.4122  51.2285 0020595 104.9876 255.3668 15.53524717 39564
ONEWEB-0561             
1 56710U 23068A   23341.36925138  .00000343  00000+0  66229-3 0  9995
2 56710  88.2934  94.0376 0001676 123.5410 236.5891 13.34302204 27544
ONEWEB-0668             
1 56711U 23068B   23341.58335648 -.00745370  00000+0 -19496+0 0  9999
2 56711  86.8973  58.4112 0012327 238.6832 296.7277 14.52221326 30530
ONEWEB-0676             
1 56712U 23068C   23341.58335648 -.00775361  00000+0 -22399+0 0  9999
2 56712  86.8773  58.3710 0012635 234.2015  30.4976 14.47632848 30526
ONEWEB-0677             
1 56713U 23068D   23341.34428896 -.00000209  00000+0 -44184-3 0  9994
2 56713  88.3259  92.1140 0001580  73.6068 286.5247 13.34775771 27727
